YAOGAN-35 01A           
1 49390U 21101A   26068.78009532  .00012075  00000+0  47335-3 0  9995
2 49390  34.9903 183.8731 0005688 189.0601 171.0012 15.24952145241689
STARLINK-36137          
1 67033U 25294D   26068.95482471  .00022928  00000+0  83991-3 0  9998
2 67033  42.9973  36.2430 0000650 155.8503 204.2379 15.27588717 14846
